{
"type": "FeatureCollection",
"name": "cph_sprint",
"crs": { "type": "name", "properties": { "name": "urn:ogc:def:crs:EPSG::25832" } },
"features": [
{ "type": "Feature", "properties": { }, "geometry": { "type": "LineString", "coordinates": [ [ 723135.324291369179264, 6174379.454707108438015 ], [ 723568.015481450827792, 6174513.057600887492299 ], [ 723782.083754438557662, 6174554.04939784295857 ], [ 723908.095574707956985, 6174654.251568177714944 ], [ 724047.771327295689844, 6174780.26338844653219 ], [ 724129.754921205807477, 6174857.69233825057745 ], [ 724181.374221075209789, 6174967.003796798177063 ], [ 724205.665656307828613, 6175076.315255344845355 ], [ 724201.111012201756239, 6175150.707775744609535 ], [ 724204.147441605804488, 6175194.736002104356885 ], [ 724357.487126511987299, 6175310.120319458656013 ], [ 724503.235737907816656, 6175419.431778006255627 ], [ 724611.028981752693653, 6175528.743236552923918 ], [ 724456.171082144486718, 6175645.645768609829247 ], [ 724360.523555915919133, 6175730.665791924111545 ], [ 724284.612820813897997, 6175809.612956430763006 ], [ 724151.009927034378052, 6176014.571941206231713 ], [ 724026.516321467002854, 6176173.984484920278192 ], [ 723988.560953915934078, 6176227.121999491937459 ], [ 723833.703054307843558, 6176318.214881613850594 ], [ 723827.630195499630645, 6176344.024531548842788 ], [ 723982.48809510783758, 6176671.958907189778984 ], [ 724106.981700675212778, 6176914.873259516432881 ], [ 723766.90160741796717, 6177113.759385484270751 ], [ 723495.141175752738491, 6177288.354076218791306 ], [ 723044.231409246684052, 6177751.409560341387987 ], [ 723044.231409246684052, 6177822.765651336871088 ], [ 723346.356134952744469, 6178325.294717712327838 ], [ 723543.724046217976138, 6178179.546106317080557 ], [ 723744.128386887372471, 6178073.271077173762023 ], [ 723812.448048479156569, 6178035.315709622576833 ], [ 723798.784116160823032, 6177408.293037679977715 ], [ 724120.645632993429899, 6177757.482419149018824 ], [ 724453.134652740322053, 6177456.875908145681024 ], [ 724642.9114904954331, 6177320.236584961414337 ], [ 724778.032598977093585, 6177215.479770520702004 ], [ 724928.335854479111731, 6177104.650097271427512 ], [ 725019.428736601490527, 6177201.815838200971484 ], [ 725116.594477532082237, 6177291.390505621209741 ], [ 725175.804850911605172, 6177341.491590788587928 ], [ 725247.160941907553934, 6177387.038031850010157 ], [ 725306.371315287076868, 6177394.629105360247195 ], [ 725336.735609327908605, 6177402.220178870484233 ], [ 725392.909553303499706, 6177443.211975825019181 ], [ 725430.864920854452066, 6177475.094484568573534 ], [ 725514.36672946671024, 6177587.442372519522905 ], [ 725550.803882315638475, 6177465.985196355730295 ], [ 725611.53247039730195, 6177285.317646813578904 ], [ 725663.151770266704261, 6177122.868673695251346 ], [ 725658.597126160515472, 6177090.986164951696992 ], [ 725616.087114503374323, 6176990.783994616940618 ], [ 725499.184582446352579, 6177034.812220976687968 ], [ 725433.901350258500315, 6176887.545394878834486 ], [ 725178.841280315769836, 6176992.302209319546819 ], [ 724973.882295540184714, 6177083.395091441459954 ], [ 724955.663719115778804, 6177095.540809058584273 ], [ 724907.080848650424741, 6177084.913306144066155 ], [ 724847.870475270901807, 6177022.666503361426294 ], [ 724770.441525466856547, 6176923.982547728344798 ], [ 724653.538993409718387, 6176772.161077524535358 ], [ 724515.381455524009652, 6176574.793166259303689 ], [ 724410.624641083180904, 6176453.335990095511079 ], [ 724327.122832471039146, 6176321.251311018131673 ], [ 724232.993520944495685, 6176177.020914324559271 ], [ 724195.03815339342691, 6176113.255896838381886 ], [ 724151.009927034261636, 6176052.527308757416904 ], [ 724272.467103197588585, 6175870.341544511727989 ], [ 724324.086403066758066, 6175808.094741728156805 ] ] } }
]
}
