{
"type": "FeatureCollection",
"name": "event places",
"crs": { "type": "name", "properties": { "name": "urn:ogc:def:crs:EPSG::25832" } },
"features": [
{ "type": "Feature", "properties": { "type": "entrance", "text": "Hovedindgang", "text_en": "Main entrance" }, "geometry": { "type": "Point", "coordinates": [ 724637.455598599859513, 6178389.294067131355405 ] } },
{ "type": "Feature", "properties": { "type": "meeting_point", "text": "Mødested", "text_en": "Meeting point" }, "geometry": { "type": "Point", "coordinates": [ 725182.127114080358297, 6179396.487546232528985 ] } },
{ "type": "Feature", "properties": { "type": "info", "text": "Information", "text_en": "Information" }, "geometry": { "type": "Point", "coordinates": [ 724438.317144657834433, 6178531.544523699209094 ] } },
{ "type": "Feature", "properties": { "type": "shop", "text": "Shop", "text_en": "Shop" }, "geometry": { "type": "Point", "coordinates": [ 725114.901110139442608, 6179327.367852039635181 ] } },
{ "type": "Feature", "properties": { "type": "tech", "text": "Teknisk support", "text_en": "Tech support" }, "geometry": { "type": "Point", "coordinates": [ 724481.619528416544199, 6178490.262076209299266 ] } },
{ "type": "Feature", "properties": { "type": "hub", "text": "Ambasadør hub", "text_en": "Ambasador hub" }, "geometry": { "type": "Point", "coordinates": [ 725044.834570820792578, 6179252.567087091505527 ] } },
{ "type": "Feature", "properties": { "type": "rocket", "text": "Team Rocket skjulested", "text_en": "Team Rocket hideout" }, "geometry": { "type": "Point", "coordinates": [ 724262.046143714454956, 6178411.263631203211844 ] } },
{ "type": "Feature", "properties": { "type": "lounge", "text": "Team lounge", "text_en": "Team lounge" }, "geometry": { "type": "Point", "coordinates": [ 724986.130173013312742, 6179192.442421594634652 ] } },
{ "type": "Feature", "properties": { "type": "aid", "text": "Førstehjælp", "text_en": "First aid" }, "geometry": { "type": "Point", "coordinates": [ 724943.522142346482724, 6179146.520432989113033 ] } },
{ "type": "Feature", "properties": { "type": "hydration", "text": "Vandpost", "text_en": "Hydration station" }, "geometry": { "type": "Point", "coordinates": [ 724274.102638317737728, 6178755.725888014771044 ] } },
{ "type": "Feature", "properties": { "type": "power", "text": "Pokestop Powerbank", "text_en": "Pokestop Powerbank" }, "geometry": { "type": "Point", "coordinates": [ 725020.216597546590492, 6179153.148348869755864 ] } },
{ "type": "Feature", "properties": { "type": "battle", "text": "Kampplads", "text_en": "Battelground" }, "geometry": { "type": "Point", "coordinates": [ 725068.505698969005607, 6179195.756379537284374 ] } },
{ "type": "Feature", "properties": { "type": "wayfarer", "text": "Wayfarer", "text_en": "Wayfarer" }, "geometry": { "type": "Point", "coordinates": [ 725101.645278376410715, 6179241.204945581033826 ] } },
{ "type": "Feature", "properties": { "type": "greet", "text": "Meet and Greed", "text_en": "Meet and Greed" }, "geometry": { "type": "Point", "coordinates": [ 725138.572238287655637, 6179281.91928599588573 ] } },
{ "type": "Feature", "properties": { "type": "broadcast", "text": "Medier", "text_en": "Media" }, "geometry": { "type": "Point", "coordinates": [ 725189.701875087688677, 6179335.889458173885942 ] } },
{ "type": "Feature", "properties": { "type": "shop", "text": "Merchandise", "text_en": "Merchandise" }, "geometry": { "type": "Point", "coordinates": [ 724687.447908446541987, 6178410.364949296228588 ] } },
{ "type": "Feature", "properties": { "type": "shop", "text": "Forudbestillinger", "text_en": "Pre-order pickup" }, "geometry": { "type": "Point", "coordinates": [ 724662.074648309033364, 6178409.801099070347846 ] } },
{ "type": "Feature", "properties": { "type": "toilet", "text": "Toilet", "text_en": "Toilet" }, "geometry": { "type": "Point", "coordinates": [ 724209.385135433403775, 6178818.498618442565203 ] } },
{ "type": "Feature", "properties": { "type": "lego", "text": "Lego play zone", "text_en": "Lego play zone" }, "geometry": { "type": "Point", "coordinates": [ 724327.551407148945145, 6178646.804035607725382 ] } },
{ "type": "Feature", "properties": { "type": "lounge", "text": "Team Instinct", "text_en": "Instinct" }, "geometry": { "type": "Point", "coordinates": [ 724285.132745507522486, 6178572.06639366876334 ] } },
{ "type": "Feature", "properties": { "type": "lounge", "text": "Team Valor", "text_en": "Team Valor" }, "geometry": { "type": "Point", "coordinates": [ 724267.963287224061787, 6178538.737445236183703 ] } },
{ "type": "Feature", "properties": { "type": "lounge", "text": "Team Mystic", "text_en": "Team Mystic" }, "geometry": { "type": "Point", "coordinates": [ 724268.973255358403549, 6178507.428433071821928 ] } },
{ "type": "Feature", "properties": { "type": "meeting_point", "text": "Meet the trainers", "text_en": "Meet the trainers" }, "geometry": { "type": "Point", "coordinates": [ 724139.697334165452048, 6178500.358656131662428 ] } },
{ "type": "Feature", "properties": { "type": "meeting_point", "text": "Meet the artists", "text_en": "Meet the artists" }, "geometry": { "type": "Point", "coordinates": [ 724333.611215954879299, 6178606.405310234986246 ] } },
{ "type": "Feature", "properties": { "type": "info ", "text": "Family services", "text_en": "Family services" }, "geometry": { "type": "Point", "coordinates": [ 724450.767519535962492, 6178521.567986952140927 ] } },
{ "type": "Feature", "properties": { "type": "lounge", "text": "Premier access lounge", "text_en": "Premier access lounge" }, "geometry": { "type": "Point", "coordinates": [ 724506.315766923478805, 6178442.790472475811839 ] } }
]
}
