{
"type": "FeatureCollection",
"name": "gyms",
"crs": { "type": "name", "properties": { "name": "urn:ogc:def:crs:EPSG::25832" } },
"features": [
{"type":"Feature","properties":{},"geometry":{"type":"Point","coordinates":[724530.703301802510396,6175361.645145006477833]}},
{"type":"Feature","properties":{},"geometry":{"type":"Point","coordinates":[724701.868682297179475,6175439.447590685449541]}},
{"type":"Feature","properties":{},"geometry":{"type":"Point","coordinates":[724583.219952636049129,6175139.90817481931299]}},
{"type":"Feature","properties":{},"geometry":{"type":"Point","coordinates":[724423.724938993225805,6175760.382679113186896]}},
{"type":"Feature","properties":{},"geometry":{"type":"Point","coordinates":[724170.866990535170771,6175900.427081336267292]}},
{"type":"Feature","properties":{},"geometry":{"type":"Point","coordinates":[724219.493519084760919,6175799.283901953138411]}},
{"type":"Feature","properties":{},"geometry":{"type":"Point","coordinates":[724143.636134547297843,6175431.667346117086709]}},
{"type":"Feature","properties":{},"geometry":{"type":"Point","coordinates":[723737.118355872342363,6175596.997543185949326]}},
{"type":"Feature","properties":{},"geometry":{"type":"Point","coordinates":[723892.723247231217101,6175968.504221305251122]}},
{"type":"Feature","properties":{},"geometry":{"type":"Point","coordinates":[723999.701610040385276,6176098.823317818343639]}},
{"type":"Feature","properties":{},"geometry":{"type":"Point","coordinates":[724637.681664611678571,6175967.531690733507276]}},
{"type":"Feature","properties":{},"geometry":{"type":"Point","coordinates":[724563.769341216189787,6176181.488416352309287]}},
{"type":"Feature","properties":{},"geometry":{"type":"Point","coordinates":[724477.214120397926308,6176211.636864053085446]}},
{"type":"Feature","properties":{},"geometry":{"type":"Point","coordinates":[725302.892575170844793,6175820.679574513807893]}},
{"type":"Feature","properties":{},"geometry":{"type":"Point","coordinates":[725175.491070370771922,6175678.690111149102449]}},
{"type":"Feature","properties":{},"geometry":{"type":"Point","coordinates":[725042.254382144776173,6175523.085219790227711]}},
{"type":"Feature","properties":{},"geometry":{"type":"Point","coordinates":[725079.210543842404149,6176047.279197555035353]}},
{"type":"Feature","properties":{},"geometry":{"type":"Point","coordinates":[725449.744691390660591,6176258.318331460468471]}},
{"type":"Feature","properties":{},"geometry":{"type":"Point","coordinates":[725525.602075928123668,6176375.99453055113554]}},
{"type":"Feature","properties":{},"geometry":{"type":"Point","coordinates":[725542.135095634963363,6176468.384934795089066]}},
{"type":"Feature","properties":{},"geometry":{"type":"Point","coordinates":[725732.751087549608201,6176169.818049500696361]}},
{"type":"Feature","properties":{},"geometry":{"type":"Point","coordinates":[725786.240268954192288,6176290.411840303801]}},
{"type":"Feature","properties":{},"geometry":{"type":"Point","coordinates":[725877.658142627449706,6176764.034228377044201]}},
{"type":"Feature","properties":{},"geometry":{"type":"Point","coordinates":[725711.355414987774566,6176863.232346618548036]}},
{"type":"Feature","properties":{},"geometry":{"type":"Point","coordinates":[725597.569338181521744,6176859.34222433436662]}},
{"type":"Feature","properties":{},"geometry":{"type":"Point","coordinates":[725453.634813674609177,6177147.211273348890245]}},
{"type":"Feature","properties":{},"geometry":{"type":"Point","coordinates":[725154.095397808821872,6176751.391330954618752]}},
{"type":"Feature","properties":{},"geometry":{"type":"Point","coordinates":[725231.897843488259241,6176947.842506295070052]}},
{"type":"Feature","properties":{},"geometry":{"type":"Point","coordinates":[724808.84704510634765,6176728.050597250461578]}},
{"type":"Feature","properties":{},"geometry":{"type":"Point","coordinates":[724935.276019335491583,6176697.902149549685419]}},
{"type":"Feature","properties":{},"geometry":{"type":"Point","coordinates":[724874.006593362893909,6176913.803936310112476]}},
{"type":"Feature","properties":{},"geometry":{"type":"Point","coordinates":[724975.149772746139206,6176968.265648285858333]}},
{"type":"Feature","properties":{},"geometry":{"type":"Point","coordinates":[725135.617316960007884,6176968.265648285858333]}},
{"type":"Feature","properties":{},"geometry":{"type":"Point","coordinates":[724922.633121912600473,6177197.782863040454686]}},
{"type":"Feature","properties":{},"geometry":{"type":"Point","coordinates":[724905.127571634599008,6177433.135261219926178]}},
{"type":"Feature","properties":{},"geometry":{"type":"Point","coordinates":[724520.977996092406102,6176565.637991896830499]}},
{"type":"Feature","properties":{},"geometry":{"type":"Point","coordinates":[724317.719106754870154,6176625.934887298382819]}},
{"type":"Feature","properties":{},"geometry":{"type":"Point","coordinates":[724273.955231060273945,6176898.24344717618078]}},
{"type":"Feature","properties":{},"geometry":{"type":"Point","coordinates":[724093.064544855500571,6176889.490672037936747]}},
{"type":"Feature","properties":{},"geometry":{"type":"Point","coordinates":[724003.591732324333861,6176959.5128731476143]}},
{"type":"Feature","properties":{},"geometry":{"type":"Point","coordinates":[723946.212428635684773,6177057.738460818305612]}},
{"type":"Feature","properties":{},"geometry":{"type":"Point","coordinates":[724078.476586290635169,6177265.86000301130116]}},
{"type":"Feature","properties":{},"geometry":{"type":"Point","coordinates":[724204.905560519662686,6177446.750689215958118]}},
{"type":"Feature","properties":{},"geometry":{"type":"Point","coordinates":[724303.131148190004751,6177554.701582595705986]}},
{"type":"Feature","properties":{},"geometry":{"type":"Point","coordinates":[724537.511015799129382,6177917.455485577695072]}},
{"type":"Feature","properties":{},"geometry":{"type":"Point","coordinates":[724589.055136061739177,6178226.720207153819501]}},
{"type":"Feature","properties":{},"geometry":{"type":"Point","coordinates":[724286.598128482932225,6178237.418043434619904]}},
{"type":"Feature","properties":{},"geometry":{"type":"Point","coordinates":[724780.643658547196537,6178387.187751366756856]}},
{"type":"Feature","properties":{},"geometry":{"type":"Point","coordinates":[724831.215248238877393,6178499.028767031617463]}},
{"type":"Feature","properties":{},"geometry":{"type":"Point","coordinates":[724915.825407915282995,6178556.408070719800889]}},
{"type":"Feature","properties":{},"geometry":{"type":"Point","coordinates":[724171.839521105634049,6178467.907788759097457]}},
{"type":"Feature","properties":{},"geometry":{"type":"Point","coordinates":[724298.268495334777981,6178728.545981785282493]}},
{"type":"Feature","properties":{},"geometry":{"type":"Point","coordinates":[724490.829548391397111,6178638.100638682954013]}},
{"type":"Feature","properties":{},"geometry":{"type":"Point","coordinates":[723837.289004683843814,6178742.161409779451787]}},
{"type":"Feature","properties":{},"geometry":{"type":"Point","coordinates":[723843.124188109766692,6179051.426131354644895]}},
{"type":"Feature","properties":{},"geometry":{"type":"Point","coordinates":[724545.291260366560891,6178973.623685675673187]}},
{"type":"Feature","properties":{},"geometry":{"type":"Point","coordinates":[724644.489378607831895,6178993.074297095648944]}},
{"type":"Feature","properties":{},"geometry":{"type":"Point","coordinates":[724475.269059255137108,6179292.613712961785495]}},
{"type":"Feature","properties":{},"geometry":{"type":"Point","coordinates":[724603.643094626138918,6179156.459433021955192]}},
{"type":"Feature","properties":{},"geometry":{"type":"Point","coordinates":[724613.368400336126797,6179448.218604319728911]}},
{"type":"Feature","properties":{},"geometry":{"type":"Point","coordinates":[726070.219195683370344,6177341.717387551441789]}},
{"type":"Feature","properties":{},"geometry":{"type":"Point","coordinates":[726128.571029942948371,6177368.948243538849056]}},
{"type":"Feature","properties":{},"geometry":{"type":"Point","coordinates":[725607.29464389081113,6177462.311178354546428]}},
{"type":"Feature","properties":{},"geometry":{"type":"Point","coordinates":[725638.415622162516229,6177703.498759960755706]}},
{"type":"Feature","properties":{},"geometry":{"type":"Point","coordinates":[725829.031614077161066,6177812.422183911316097]}},
{"type":"Feature","properties":{},"geometry":{"type":"Point","coordinates":[726109.120418523089029,6177874.664140455424786]}},
{"type":"Feature","properties":{},"geometry":{"type":"Point","coordinates":[726206.37347562238574,6177804.641939343884587]}},
{"type":"Feature","properties":{},"geometry":{"type":"Point","coordinates":[725455.579874815884978,6177540.113624033518136]}},
{"type":"Feature","properties":{},"geometry":{"type":"Point","coordinates":[725467.250241667847149,6177672.3777816882357]}},
{"type":"Feature","properties":{},"geometry":{"type":"Point","coordinates":[725296.084861173061654,6177905.785118727013469]}},
{"type":"Feature","properties":{},"geometry":{"type":"Point","coordinates":[725179.3811926539056,6178014.708542678505182]}},
{"type":"Feature","properties":{},"geometry":{"type":"Point","coordinates":[725338.876206296612509,6175384.985878712497652]}},
{"type":"Feature","properties":{},"geometry":{"type":"Point","coordinates":[725389.447795988293365,6175260.501965625211596]}},
{"type":"Feature","properties":{},"geometry":{"type":"Point","coordinates":[725751.229168397607282,6175532.810525503009558]}},
{"type":"Feature","properties":{},"geometry":{"type":"Point","coordinates":[725568.393421050976031,6175703.975905997678638]}},
{"type":"Feature","properties":{},"geometry":{"type":"Point","coordinates":[725840.701980929006822,6174960.962549759075046]}},
{"type":"Feature","properties":{},"geometry":{"type":"Point","coordinates":[725918.504426608327776,6174988.193405747413635]}},
{"type":"Feature","properties":{},"geometry":{"type":"Point","coordinates":[726109.120418522972614,6175058.215606858953834]}},
{"type":"Feature","properties":{},"geometry":{"type":"Point","coordinates":[726083.834623677073978,6175536.700647787190974]}},
{"type":"Feature","properties":{},"geometry":{"type":"Point","coordinates":[726068.274134541163221,6175667.019744300283492]}},
{"type":"Feature","properties":{},"geometry":{"type":"Point","coordinates":[726270.560493307653815,6175738.987006553448737]}},
{"type":"Feature","properties":{},"geometry":{"type":"Point","coordinates":[726377.538856116821989,6175546.425953497178853]}},
{"type":"Feature","properties":{},"geometry":{"type":"Point","coordinates":[726426.165384666528553,6175626.17346031870693]}},
{"type":"Feature","properties":{},"geometry":{"type":"Point","coordinates":[726447.561057228362188,6175616.448154608719051]}},
{"type":"Feature","properties":{},"geometry":{"type":"Point","coordinates":[726657.627660562749952,6175754.547495689243078]}}
]
}
