{
"type": "FeatureCollection",
"name": "zones",
"crs": { "type": "name", "properties": { "name": "urn:ogc:def:crs:EPSG::25832" } },
"features": [
{"type":"Feature","properties":{"name":"Fælledparken","type":"park"},"geometry":{"type":"Polygon","coordinates":[[[724047.818641650024801,6178972.70436017587781],[724708.221344358287752,6178391.965411468409002],[724383.525753927999176,6178046.094021662138402],[723997.655631967354566,6178408.435477649793029],[724015.67344340425916,6178473.382280755788088],[724010.315910363337025,6178543.030210289172828],[723956.740579953650013,6178610.535126605071127],[723910.665795801323839,6178683.397575962357223],[723889.235663637518883,6178740.187426196411252],[723892.45018346211873,6178780.904677307233214],[723912.808809017762542,6178818.407408594153821],[723964.241126211010851,6178882.697805088013411],[723998.529337673215196,6178921.272042982280254],[724047.818641650024801,6178972.70436017587781]]]}}
]
}
