{
"type": "FeatureCollection",
"name": "event places",
"crs": { "type": "name", "properties": { "name": "urn:ogc:def:crs:EPSG::25832" } },
"features": [
{ "type": "Feature", "properties": { "type": "entrance", "text": "Hovedindgang", "text_en": "Main entrance" }, "geometry": { "type": "Point", "coordinates": [ 724637.455598599859513, 6178389.294067131355405 ] } },
{ "type": "Feature", "properties": { "type": "meeting_point", "text": "Mødested", "text_en": "Meeting point" }, "geometry": { "type": "Point", "coordinates": [ 729227.893346988479607, 6180636.429411453194916 ] } },
{ "type": "Feature", "properties": { "type": "info", "text": "Information", "text_en": "Information" }, "geometry": { "type": "Point", "coordinates": [ 724438.317144657834433, 6178531.544523699209094 ] } },
{ "type": "Feature", "properties": { "type": "shop", "text": "Shop", "text_en": "Shop" }, "geometry": { "type": "Point", "coordinates": [ 729160.667343047563918, 6180567.309717260301113 ] } },
{ "type": "Feature", "properties": { "type": "tech", "text": "Teknisk support", "text_en": "Tech support" }, "geometry": { "type": "Point", "coordinates": [ 724481.619528416544199, 6178490.262076209299266 ] } },
{ "type": "Feature", "properties": { "type": "hub", "text": "Ambasadør hub", "text_en": "Ambasador hub" }, "geometry": { "type": "Point", "coordinates": [ 729090.600803728913888, 6180492.508952312171459 ] } },
{ "type": "Feature", "properties": { "type": "rocket", "text": "Team Rocket skjulested", "text_en": "Team Rocket hideout" }, "geometry": { "type": "Point", "coordinates": [ 724292.597679777536541, 6178360.007748385891318 ] } },
{ "type": "Feature", "properties": { "type": "lounge", "text": "Team lounge", "text_en": "Team lounge" }, "geometry": { "type": "Point", "coordinates": [ 729031.896405921434052, 6180432.384286815300584 ] } },
{ "type": "Feature", "properties": { "type": "aid", "text": "Førstehjælp", "text_en": "First aid" }, "geometry": { "type": "Point", "coordinates": [ 728989.288375254604034, 6180386.462298209778965 ] } },
{ "type": "Feature", "properties": { "type": "hydration", "text": "Vandpost", "text_en": "Hydration station" }, "geometry": { "type": "Point", "coordinates": [ 724274.102638317737728, 6178755.725888014771044 ] } },
{ "type": "Feature", "properties": { "type": "power", "text": "Pokestop Powerbank", "text_en": "Pokestop Powerbank" }, "geometry": { "type": "Point", "coordinates": [ 729065.982830454711802, 6180393.090214090421796 ] } },
{ "type": "Feature", "properties": { "type": "battle", "text": "Kampplads", "text_en": "Battelground" }, "geometry": { "type": "Point", "coordinates": [ 729114.271931877126917, 6180435.698244757950306 ] } },
{ "type": "Feature", "properties": { "type": "wayfarer", "text": "Wayfarer", "text_en": "Wayfarer" }, "geometry": { "type": "Point", "coordinates": [ 729147.411511284532025, 6180481.146810801699758 ] } },
{ "type": "Feature", "properties": { "type": "greet", "text": "Meet and Greed", "text_en": "Meet and Greed" }, "geometry": { "type": "Point", "coordinates": [ 729184.338471195776947, 6180521.861151216551661 ] } },
{ "type": "Feature", "properties": { "type": "broadcast", "text": "Medier", "text_en": "Media" }, "geometry": { "type": "Point", "coordinates": [ 729235.468107995809987, 6180575.831323394551873 ] } },
{ "type": "Feature", "properties": { "type": "shop", "text": "Merchandise", "text_en": "Merchandise" }, "geometry": { "type": "Point", "coordinates": [ 724664.723625424318016, 6178412.889869632199407 ] } },
{ "type": "Feature", "properties": { "type": "shop", "text": "Forudbestillinger", "text_en": "Pre-order pickup" }, "geometry": { "type": "Point", "coordinates": [ 724647.935094428597949, 6178409.801099070347846 ] } },
{ "type": "Feature", "properties": { "type": "toilet", "text": "Toilet", "text_en": "Toilet" }, "geometry": { "type": "Point", "coordinates": [ 724209.385135433403775, 6178818.498618442565203 ] } },
{ "type": "Feature", "properties": { "type": "lego", "text": "Lego play zone", "text_en": "Lego play zone" }, "geometry": { "type": "Point", "coordinates": [ 724327.551407148945145, 6178646.804035607725382 ] } },
{ "type": "Feature", "properties": { "type": "lounge", "text": "Team Instinct", "text_en": "Instinct" }, "geometry": { "type": "Point", "coordinates": [ 724267.963287224061787, 6178544.797254042699933 ] } },
{ "type": "Feature", "properties": { "type": "lounge", "text": "Team Valor", "text_en": "Team Valor" }, "geometry": { "type": "Point", "coordinates": [ 724261.14600231742952, 6178534.445080665871501 ] } },
{ "type": "Feature", "properties": { "type": "lounge", "text": "Team Mystic", "text_en": "Team Mystic" }, "geometry": { "type": "Point", "coordinates": [ 724258.621081981691532, 6178513.235749844461679 ] } },
{ "type": "Feature", "properties": { "type": "meeting_point", "text": "Meet the trainers", "text_en": "Meet the trainers" }, "geometry": { "type": "Point", "coordinates": [ 724139.697334165452048, 6178500.358656131662428 ] } },
{ "type": "Feature", "properties": { "type": "meeting_point", "text": "Meet the artists", "text_en": "Meet the artists" }, "geometry": { "type": "Point", "coordinates": [ 724333.611215954879299, 6178606.405310234986246 ] } },
{ "type": "Feature", "properties": { "type": "info ", "text": "Family services", "text_en": "Family services" }, "geometry": { "type": "Point", "coordinates": [ 724450.767519535962492, 6178521.567986952140927 ] } },
{ "type": "Feature", "properties": { "type": "lounge", "text": "Premier access lounge", "text_en": "Premier access lounge" }, "geometry": { "type": "Point", "coordinates": [ 724506.315766923478805, 6178442.790472475811839 ] } }
]
}
