{
"type": "FeatureCollection",
"name": "event zones",
"crs": { "type": "name", "properties": { "name": "urn:ogc:def:crs:EPSG::25832" } },
"features": [
{"type":"Feature","properties":{"type":"cultivation","text":"Cultivation Zone","text_en":"Cultivation Zone"},"geometry":{"type":"Polygon","coordinates":[[[724106.751505098538473,6178859.660412994213402],[724121.21684430912137,6178907.3424570588395],[724041.925355302868411,6178971.632853549905121],[723917.094835448311642,6178825.907954836264253],[723907.98702927865088,6178802.870562759228051],[723903.165249541867524,6178786.262210332788527],[723897.27196319680661,6178763.224818256683648],[723901.557989629567601,6178741.258932788856328],[723906.915522670489736,6178719.828800625167787],[723913.34456231968943,6178692.505382115952671],[723922.988121793372557,6178678.040042905136943],[723943.882500653155148,6178641.073064922355115],[723966.384139425237663,6178606.249100156128407],[723984.599751764559187,6178579.46143495105207],[723991.564544717781246,6178584.818967992439866],[723995.314817846403457,6178594.462527466006577],[723998.529337671003304,6178611.070879893377423],[724003.351117407903075,6178625.536219103261828],[724009.78015705710277,6178636.251285186037421],[724017.280703314463608,6178645.359091355465353],[724021.566729747224599,6178660.36018387041986],[724018.352209922624752,6178670.53949664812535],[724012.458923577563837,6178678.575796209275723],[724008.70865044882521,6178686.076342466287315],[724011.387416969402693,6178703.75620150193572],[724014.066183489863761,6178716.07852749619633],[724017.816456618485972,6178725.186333665624261],[724018.352209922624752,6178734.294139835052192],[724010.315910361125134,6178748.75947904586792],[724010.315910361125134,6178759.47454512771219],[724017.816456618485972,6178772.332624426111579],[724028.531522700446658,6178777.690157467499375],[724037.63932887010742,6178788.405223549343646],[724044.604121823329479,6178799.656042935326695],[724052.640421384829096,6178810.371109017170966],[724060.676720946212299,6178820.014668490737677],[724060.140967642189935,6178833.408501093275845],[724060.140967642189935,6178848.945346912369132],[724053.71192799299024,6178859.124659690074623],[724047.282888343790546,6178863.410686122253537],[724043.532615215168335,6178867.160959251224995],[724039.246588782407343,6178876.268765420652926],[724039.246588782407343,6178884.305064982734621],[724042.461108607007191,6178890.734104631468654],[724043.532615215168335,6178907.3424570588395],[724047.282888343790546,6178914.307250011712313],[724055.854941209312528,6178916.450263228267431],[724062.819734162651002,6178915.378756619989872],[724069.248773811734281,6178910.556976882740855],[724073.534800244495273,6178903.056430625729263],[724076.74932006909512,6178892.877117848023772],[724077.820826677372679,6178883.233558374457061],[724082.642606414156035,6178873.054245596751571],[724083.178359718294814,6178870.375479076057673],[724091.750412583816797,6178867.696712555363774],[724098.715205537038855,6178867.696712555363774],[724102.465478665777482,6178866.625205947086215],[724106.751505098538473,6178859.660412994213402]]]}},
{"type":"Feature","properties":{"type":"conservatory","text":"Conservatory Zone","text_en":"Conservatory Zone"},"geometry":{"type":"Polygon","coordinates":[[[724314.623787088086829,6178728.400853489525616],[724316.766800304409117,6178702.684694892726839],[724318.90981352084782,6178674.825523079372942],[724325.338853169931099,6178652.323884307406843],[724332.839399427291937,6178633.036765360273421],[724348.911998550174758,6178614.821153020486236],[724360.698571240296587,6178603.034580330364406],[724383.200210012379102,6178580.532941558398306],[724439.990060246665962,6178531.24363758135587],[724462.491699018748477,6178511.956518634222448],[724480.707311357953586,6178496.955426119267941],[724490.350870831753127,6178483.025840212590992],[724499.994430305436254,6178459.452694832347333],[724506.423469954635948,6178440.165575885213912],[724510.709496387396939,6178420.87845693808049],[724507.494976562797092,6178406.948871031403542],[724501.065936913597398,6178395.162298341281712],[724501.065936913597398,6178381.232712434604764],[724504.280456738197245,6178368.374633136205375],[724510.709496387396939,6178357.659567054361105],[724513.924016211996786,6178318.013822550885379],[724510.709496387396939,6178294.44067717064172],[724498.92292369727511,6178271.939038398675621],[724488.207857615314424,6178255.866439276374876],[724466.777725451509468,6178238.722333544865251],[724454.991152761387639,6178223.721241029910743],[724444.276086679426953,6178205.505628691054881],[724431.41800738114398,6178191.576042784377933],[724406.773355392622761,6178178.717963485978544],[724381.057196796056814,6178173.360430444590747],[724361.770077848574147,6178178.717963485978544],[724346.76898533385247,6178199.076589041389525],[724312.480773871764541,6178255.866439275443554],[724309.266254047281109,6178298.726703602820635],[724266.405989719554782,6178299.798210211098194],[724251.404897204833105,6178299.798210211098194],[724243.904350947472267,6178298.726703602820635],[724233.189284865511581,6178303.012730035930872],[724218.188192350789905,6178305.155743252485991],[724206.401619660668075,6178310.513276292942464],[724190.329020537785254,6178310.513276292942464],[724176.399434631341137,6178312.656289509497583],[724147.468756210058928,6178319.085329158231616],[724119.609584397054277,6178327.65738202445209],[724104.608491882216185,6178334.086421674117446],[724096.036439016577788,6178324.442862200550735],[724298.551187965087593,6178139.072218982502818],[724385.343223228817806,6178045.851144069805741],[724718.581778376828879,6178399.448324773460627],[724314.623787088086829,6178728.400853489525616]]]}},
{"type":"Feature","properties":{"type":"rocket","text":"Team Go Rocket Hideout","text_en":"Team Go Rocket Hideout"},"geometry":{"type":"Polygon","coordinates":[[[724085.321372934849933,6178333.014915064908564],[724001.743857495835982,6178414.449417287483811],[724010.315910361357965,6178429.450509802438319],[724015.6734434022801,6178446.594615533947945],[724018.887963226879947,6178465.881734481081367],[724023.173989659640938,6178485.168853428214788],[724023.173989659640938,6178498.026932726614177],[724023.173989659640938,6178511.956518633291125],[724017.816456618718803,6178525.886104539968073],[724014.601936794118956,6178535.529664013534784],[724008.172897144919261,6178549.459249920211732],[724031.74604252516292,6178554.816782961599529],[724053.176174689084291,6178562.317329218611121],[724070.320280420128256,6178563.38883582688868],[724088.53589275944978,6178564.46034243516624],[724106.751505098771304,6178562.317329218611121],[724135.682183519937098,6178554.816782961599529],[724157.112315683858469,6178546.244730095379055],[724171.041901590302587,6178535.529664013534784],[724180.685461064102128,6178529.100624364800751],[724194.615046970546246,6178520.528571498580277],[724205.330113052506931,6178517.314051674678922],[724212.830659309867769,6178516.242545066401362],[724227.831751824589446,6178513.028025241568685],[724233.189284865511581,6178528.029117756523192],[724233.189284865511581,6178540.887197054922581],[724235.332298081950285,6178551.602263136766851],[724319.981320129125379,6178554.816782961599529],[724351.055011766729876,6178348.016007579863071],[724354.269531591329724,6178316.94231594260782],[724337.125425860285759,6178307.298756468109787],[724313.5522804800421,6178305.155743252485991],[724277.121055801399052,6178305.155743252485991],[724249.261883988394402,6178305.155743252485991],[724210.687646093429066,6178314.799302726052701],[724158.183822292019613,6178321.228342374786735],[724116.39506457245443,6178336.229434889741242],[724093.893425800371915,6178339.44395471457392],[724085.321372934849933,6178333.014915064908564]]]}},
{"type":"Feature","properties":{"type":"recruitment","text":"Recruitment Zone","text_en":"Recruitment Zone"},"geometry":{"type":"Polygon","coordinates":[[[723991.028791413875297,6178573.032395300455391],[724002.815364103997126,6178555.888289568945765],[724014.601936794118956,6178559.102809393778443],[724030.674535917001776,6178564.46034243516624],[724052.104668080923147,6178565.531849043443799],[724066.034253987367265,6178568.746368867345154],[724087.464386151288636,6178569.817875475622714],[724100.322465449571609,6178570.889382083900273],[724120.681091005215421,6178566.603355651721358],[724138.896703344536945,6178563.38883582688868],[724152.826289250981063,6178555.888289568945765],[724167.827381765702739,6178548.387743311934173],[724180.685461064102128,6178540.887197054922581],[724194.615046970546246,6178530.17213097307831],[724208.544632877106778,6178524.814597931690514],[724219.259698959067464,6178524.814597931690514],[724221.402712175389752,6178540.887197054922581],[724221.402712175389752,6178555.888289568945765],[724225.688738608150743,6178562.317329218611121],[724236.403804690111428,6178561.245822610333562],[724280.335575625998899,6178561.245822610333562],[724318.909813520964235,6178561.245822610333562],[724337.125425860285759,6178561.245822610333562],[724342.482958901207894,6178571.960888692177832],[724342.482958901207894,6178583.747461382299662],[724330.696386211086065,6178596.60554068069905],[724319.981320129125379,6178603.034580329433084],[724312.480773871764541,6178626.607725709676743],[724310.337760655442253,6178651.252377698197961],[724304.980227614520118,6178681.254562728106976],[724302.837214398081414,6178706.970721324905753],[724299.622694573481567,6178721.971813838928938],[724299.622694573481567,6178739.115919570438564],[724301.76570778968744,6178746.616465828381479],[724127.1101306542987,6178899.841910799965262],[724121.75259761326015,6178881.6262984611094],[724116.395064572338015,6178867.696712554432452],[724120.681091005099006,6178852.695620039477944],[724118.538077788660303,6178839.837540741078556],[724116.395064572338015,6178829.122474659234285],[724107.823011706816033,6178813.049875536933541],[724102.465478665777482,6178798.048783021979034],[724103.536985273938626,6178786.262210331857204],[724111.037531531299464,6178775.547144250012934],[724118.538077788660303,6178763.760571559891105],[724118.538077788660303,6178747.687972436659038],[724118.538077788660303,6178730.543866705149412],[724115.323557964176871,6178719.828800623305142],[724106.751505098538473,6178710.185241149738431],[724094.964932408416644,6178705.899214717559516],[724088.535892759333365,6178701.613188284449279],[724079.963839893694967,6178687.683602377772331],[724077.820826677372679,6178675.897029687650502],[724073.534800244611688,6178668.396483430638909],[724059.605214338051155,6178659.824430564418435],[724054.24768129712902,6178652.323884307406843],[724054.24768129712902,6178640.537311617285013],[724060.676720946212299,6178631.965258751995862],[724062.819734162651002,6178619.107179453596473],[724062.819734162651002,6178605.177593546919525],[724062.819734162651002,6178596.605540681630373],[724056.390694513451308,6178583.747461383230984],[724053.176174688967876,6178577.318421733565629],[724038.175082174246199,6178571.960888693109155],[724016.744950010324828,6178573.032395301386714],[724007.101390536641702,6178575.175408517941833],[723991.028791413875297,6178573.032395300455391]]]}}
]
}
