{
"type": "FeatureCollection",
"name": "routes",
"crs": { "type": "name", "properties": { "name": "urn:ogc:def:crs:EPSG::25832" } },
"features": [
{"type":"Feature","properties":{},"geometry":{"type":"LineString","coordinates":[[724297.295964763266966,6178233.527921149507165],[724261.312333636567928,6178246.170818572863936],[724236.999069361714646,6178252.978532569482923],[724221.438580225803889,6178259.786246567033231],[724191.29013252502773,6178272.42914398945868],[724183.509887957130559,6178281.181919128634036],[724169.894459963194095,6178306.467713974416256],[724160.169154253206216,6178332.726039391011],[724149.471317972289398,6178353.149181381799281],[724141.691073404392228,6178373.572323372587562],[724141.691073404392228,6178391.077873650938272],[724165.031807108200155,6178417.336199067533016],[724182.537357386085205,6178436.786810487508774],[724198.097846521995962,6178461.100074762478471],[724206.850621660938486,6178482.495747324079275],[724213.658335657906719,6178500.973828173242509],[724219.493519083829597,6178527.232153589837253],[724224.356171938823536,6178545.710234439000487],[724227.273763651726767,6178567.105907000601292],[724231.163885935791768,6178587.529048991389573],[724235.054008219740354,6178610.869782694615424],[724235.054008219740354,6178624.485210688784719]]}},
{"type":"Feature","properties":{},"geometry":{"type":"LineString","coordinates":[[724567.65946349920705,6178356.066773095168173],[724553.071504934341647,6178355.09424252435565],[724533.620893514482304,6178341.478814530186355],[724518.060404378571548,6178327.86338653601706],[724505.417506955680437,6178318.138080826029181],[724502.499915242777206,6178302.57759169023484],[724493.747140103834681,6178280.209388557821512],[724478.186650967923924,6178262.703838279470801],[724464.57122297398746,6178248.115879714488983],[724447.065672696102411,6178232.555390578694642],[724439.28542812820524,6178212.132248587906361],[724431.505183560308069,6178197.544290022924542],[724397.466613575466909,6178183.928862028755248],[724381.906124439672567,6178182.956331457942724],[724359.537921306793578,6178204.352004020474851],[724334.252126461011358,6178219.912493156269193],[724309.938862186158076,6178228.665268294513226],[724279.790414485381916,6178237.418043433688581],[724240.889191645663232,6178248.115879714488983],[724217.548457941855304,6178257.841185424476862],[724196.152785380021669,6178264.648899422027171],[724174.757112818188034,6178278.264327415265143],[724129.048175981501117,6178316.193019684404135],[724100.84478942269925,6178341.478814530186355],[724077.504055718891323,6178366.764609375968575],[724057.080913727986626,6178403.720771073363721],[724048.328138589044102,6178426.088974206708372],[724042.492955163121223,6178447.484646768309176],[724041.520424592075869,6178478.605625039897859],[724038.602832879172638,6178506.809011599048972]]}},
{"type":"Feature","properties":{},"geometry":{"type":"LineString","coordinates":[[724642.544317465741187,6178389.132812508381903],[724625.038767187856138,6178405.665832215920091],[724605.588155767996795,6178416.363668496720493],[724583.219952635117806,6178414.418607354164124],[724539.456076940521598,6178412.473546212539077],[724518.060404378571548,6178407.610893357545137],[724508.335098668700084,6178410.52848507091403],[724493.747140103834681,6178450.402238481678069],[724482.07677325187251,6178475.688033327460289],[724469.4338758289814,6178498.056236459873617],[724452.900856122141704,6178511.671664454042912],[724430.532652989262715,6178528.204684160649776],[724410.109510998474434,6178546.682765009813011],[724384.823716152575798,6178567.105907000601292],[724366.34563530376181,6178586.556518420577049],[724351.757676738896407,6178602.117007556371391],[724359.537921306793578,6178615.732435549609363],[724375.098410442704335,6178624.485210688784719],[724391.63143014954403,6178616.704966121353209],[724402.329266430460848,6178604.062068697996438],[724417.889755566371605,6178588.501579562202096],[724424.697469563339837,6178575.858682139776647],[724420.807347279391252,6178555.435540148057044],[724412.054572140448727,6178545.710234439000487],[724381.906124439672567,6178571.968559855595231],[724356.620329593773931,6178599.199415843002498],[724336.19718760298565,6178621.567618976347148],[724324.526820751023479,6178639.073169253766537],[724316.746576183126308,6178663.386433528736234],[724307.993801044183783,6178692.56235065869987],[724300.213556476286612,6178703.260186939500272],[724275.900292201433331,6178712.985492649488151],[724263.257394778542221,6178714.930553791113198]]}},
{"type":"Feature","properties":{},"geometry":{"type":"LineString","coordinates":[[724445.120611554128118,6178518.479378450661898],[724409.13698042742908,6178549.600356722250581],[724378.016002155607566,6178577.803743281401694],[724350.785146167851053,6178606.97966041136533],[724325.499351322068833,6178640.04569982457906],[724316.746576183126308,6178672.139208667911589],[724303.131148189189844,6178700.34259522613138],[724283.680536769330502,6178707.150309223681688],[724263.257394778542221,6178715.903084361925721],[724256.449680781573988,6178725.6283900719136],[724241.861722216708586,6178748.969123776070774],[724231.163885935791768,6178762.584551770240068],[724214.630866228835657,6178771.337326908484101],[724199.0703770929249,6178783.007693761028349],[724183.509887957130559,6178794.678060612641275],[724179.619765673065558,6178820.936386030167341],[724167.949398821219802,6178839.414466878399253],[724139.746012262417935,6178854.002425443381071],[724121.267931413487531,6178868.590384008362889],[724102.789850564673543,6178885.123403715901077],[724089.174422570737079,6178895.821239996701479],[724080.421647431794554,6178909.436667989939451],[724074.586464005871676,6178921.107034842483699],[724066.806219437974505,6178932.777401694096625],[724048.328138589044102,6178934.722462835721672],[724032.76764945324976,6178921.107034842483699],[724025.959935456281528,6178899.711362279951572],[724010.399446320370771,6178868.590384008362889],[724024.014874314307235,6178852.057364301756024],[724030.822588311159052,6178830.66169174015522],[724030.822588311159052,6178814.128672032617033],[724030.822588311159052,6178799.540713468566537],[724016.234629746293649,6178789.815407758578658],[723997.756548897479661,6178776.199979764409363],[723984.141120903543197,6178762.584551770240068],[723986.086182045517489,6178732.436104069463909],[723995.811487755505368,6178699.370064656250179],[724006.509324036422186,6178671.166678097099066],[724010.399446320370771,6178657.551250102929771],[724035.685241166152991,6178648.798474964685738],[724064.861158296000212,6178646.853413822129369],[724069.723811150877737,6178645.880883251316845]]}},
{"type":"Feature","properties":{},"geometry":{"type":"LineString","coordinates":[[724039.575363450101577,6178932.777401694096625],[724041.520424592075869,6178926.942218268290162],[724034.712710595224053,6178920.134504271671176],[724029.850057740230113,6178902.628953993320465],[724024.014874314307235,6178889.01352599915117],[724013.317038033390418,6178873.453036863356829],[724017.207160317339003,6178862.755200582556427],[724024.014874314307235,6178847.194711446762085],[724028.877527169184759,6178830.66169174015522],[724030.822588311159052,6178809.266019177623093],[724027.904996598255821,6178796.623121755197644],[724017.207160317339003,6178787.870346616022289],[723996.784018326434307,6178777.172510335221887],[723986.086182045517489,6178763.557082341052592],[723985.113651474588551,6178749.94165434781462],[723987.058712616562843,6178725.628390072844923],[723995.811487755505368,6178696.452472942881286],[724004.564262894447893,6178675.056800381280482],[724009.426915749325417,6178656.578719532117248],[724033.740180024178699,6178647.825944392941892],[724053.190791444038041,6178645.880883251316845],[724068.751280579948798,6178643.935822109691799],[724073.613933434942737,6178658.523780673742294],[724085.284300286788493,6178680.891983807086945],[724095.982136567705311,6178695.479942372068763],[724109.597564561641775,6178711.040431507863104],[724118.3503397005843,6178725.628390072844923],[724122.240461984532885,6178749.94165434781462],[724122.240461984532885,6178767.447204625234008],[724113.48768684559036,6178779.117571476846933],[724096.954667138750665,6178790.787938329391181],[724098.899728280724958,6178810.238549749366939],[724112.515156274661422,6178828.716630597598851],[724118.3503397005843,6178850.112303160130978],[724120.295400842558593,6178864.700261725112796],[724107.652503419667482,6178884.150873144157231],[724092.092014283756725,6178892.903648283332586],[724083.339239144814201,6178909.436667989939451],[724074.586464005871676,6178925.969687697477639],[724068.751280579948798,6178931.804871123284101],[724049.300669160089456,6178933.749932264909148],[724042.492955163121223,6178931.804871123284101]]}},
{"type":"Feature","properties":{},"geometry":{"type":"LineString","coordinates":[[724193.235193667002022,6178449.429707910865545],[724206.850621660938486,6178482.495747324079275],[724223.383641367778182,6178529.177214732393622],[724229.21882479370106,6178575.858682139776647],[724236.999069361714646,6178623.512680118903518],[724240.889191645663232,6178653.661127819679677],[724254.504619639599696,6178681.864514377899468],[724272.982700488413684,6178714.93055379204452],[724297.295964763266966,6178736.326226353645325],[724308.966331615112722,6178758.694429486058652],[724315.774045612080954,6178779.117571476846933],[724310.91139275720343,6178808.29348860681057],[724281.735475627356209,6178839.414466878399253],[724267.147517062490806,6178860.81013944093138],[724232.136416506720707,6178896.793770567514002],[724181.564826815156266,6178940.557646262459457],[724142.663603975437582,6178966.815971679054201],[724116.405278558610007,6178995.019358237273991],[724100.84478942269925,6179024.195275367237628],[724084.311769715859555,6179046.563478500582278],[724054.163322015083395,6179066.986620491370559],[724026.932466027326882,6179074.766865059733391],[724018.179690888384357,6179097.135068192146719],[724018.179690888384357,6179116.585679612122476],[724021.097282601287588,6179122.420863037928939]]}},
{"type":"Feature","properties":{},"geometry":{"type":"LineString","coordinates":[[723912.173858650028706,6179142.84400502871722],[723873.272635810310021,6179135.06376046128571],[723859.657207816489972,6179100.052659905515611],[723859.657207816489972,6179063.096498207189143],[723855.767085532541387,6179022.250214225612581],[723846.041779822553508,6178956.118135398253798],[723846.041779822553508,6178895.821239996701479],[723847.986840964527801,6178868.590384009294212],[723846.041779822553508,6178804.403366323560476],[723846.041779822553508,6178744.106470922008157],[723847.986840964527801,6178730.491042927838862],[723846.041779822553508,6178691.589820087887347],[723846.041779822553508,6178627.402802403084934],[723857.712146674515679,6178582.666396137326956],[723921.899164360016584,6178582.666396137326956],[723964.690509483683854,6178594.336762988939881]]}},
{"type":"Feature","properties":{},"geometry":{"type":"LineString","coordinates":[[724405.246858143829741,6175844.020308222621679],[724472.351467542350292,6175901.399611911736429],[724525.84064894693438,6175950.998671032488346],[724594.890319487429224,6176011.295566434040666],[724634.764072898193263,6176041.444014134816825],[724689.225784873822704,6176081.317767545580864],[724727.154477142496035,6176108.548623532988131],[724778.698597405105829,6176110.493684674613178],[724827.325125954812393,6176106.603562391363084],[724874.979123933357187,6176112.438745817169547],[724883.731899072299711,6176124.109112668782473],[724894.429735353216529,6176140.642132375389338]]}},
{"type":"Feature","properties":{},"geometry":{"type":"LineString","coordinates":[[724835.105370522709563,6176107.576092962175608],[724909.017693918198347,6176111.466215246357024],[724959.589283609762788,6176123.136582097969949],[725010.160873301443644,6176130.916826665401459],[725045.171973857213743,6176143.55972408875823],[725075.320421557989903,6176161.065274366177619],[725130.754664104548283,6176182.460946928709745],[725182.298784367158078,6176209.691802916117013],[725217.309884922928177,6176230.114944906905293],[725246.485802052658983,6176254.42820918187499],[725288.304616605397314,6176278.741473456844687],[725328.178370016044937,6176300.137146018445492],[725369.024653997737914,6176313.752574012614787],[725405.980815695482306,6176333.203185432590544]]}}
]
}
