{
"type": "FeatureCollection",
"name": "zones",
"crs": { "type": "name", "properties": { "name": "urn:ogc:def:crs:EPSG::25832" } },
"features": [
{"type":"Feature","properties":{"name":"Fælledparken","type":"park"},"geometry":{"type":"Polygon","coordinates":[[[723870.6008357120445,6179137.824122819118202],[724708.221344358287752,6178391.965411468409002],[724383.525753927999176,6178046.094021662138402],[723997.655631967354566,6178408.435477649793029],[723832.95497015491128,6178279.027814797125757],[723832.95497015491128,6179022.533659550361335],[723847.072169738821685,6179130.76552302762866],[723870.6008357120445,6179137.824122819118202]]]}}
]
}
